COSMOS 1892             
1 18421U 87088A   20254.88071037  .00000381  00000-0  17419-4 0  9992
2 18421  82.5026 188.9940 0016354 125.2810 234.9956 15.17218491797503
SL-14 R/B               
1 18749U 88001B   20255.09545705  .00000062  00000-0  46115-5 0  9995
2 18749  82.5113 277.3809 0019248  20.7161  31.5802 14.83226181765663
COSMOS 1933             
1 18958U 88020A   20255.16777139  .00000469  00000-0  32076-4 0  9995
2 18958  82.5297  42.8146 0010649 214.5219 145.5317 15.03760051769135
SL-3 R/B                
1 19046U 88032B   20255.09226424 -.00000671  00000-0 -45111-4 0  9996
2 19046  97.3997 272.3543 0035537 275.6008  84.1165 15.02741820750112
SL-16 R/B               
1 19120U 88039B   20254.68190089 -.00000113  00000-0 -31034-4 0  9997
2 19120  71.0174 348.4318 0021923 182.5815 177.5201 14.19207569673747
COSMOS 1953             
1 19210U 88050A   20254.75979583  .00000513  00000-0  33154-4 0  9999
2 19210  82.5191 327.0249 0013194 182.5120 177.6044 15.06023327734502
SL-8 R/B                
1 19257U 88053B   20255.18708705 -.00000019  00000-0  24515-5 0  9991
2 19257  74.0492 203.3417 0020142 164.7704 295.4489 14.37480294688601
COSMOS 1975             
1 19573U 88093A   20254.59737399 -.00000146  00000-0 -12387-4 0  9996
2 19573  82.5170 281.7047 0012870 227.2876 132.7268 15.04920081737456
SL-14 R/B               
1 19574U 88093B   20254.76025792  .00000049  00000-0  29631-5 0  9994
2 19574  82.5309 120.2891 0021617 176.7062 250.1105 14.83336676703511
SL-16 R/B               
1 19650U 88102B   20254.83340751  .00000246  00000-0  14911-3 0  9995
2 19650  71.0000  50.3699 0014633 192.7774 167.2980 14.15791842642969
INTERCOSMOS 24          
1 20261U 89080A   20255.19869775  .00000092  00000-0  26542-4 0  9996
2 20261  82.6080 324.7917 1201521 249.9923  96.8057 12.56130033414356
SL-14 R/B               
1 20262U 89080C   20254.81632178  .00000035  00000-0  53680-6 0  9992
2 20262  82.5980  19.2448 1237668  82.5157 291.4496 12.48945836409643
DELTA 2 R/B(1)          
1 20303U 89085B   20254.95686841  .00001022  00000-0  34417-4 0  9996
2 20303  35.6336 193.2179 0095081 217.1965 142.2147 15.27573938681682
DELTA 1 R/B             
1 20323U 89089B   20254.81683810  .00000032  00000-0  17568-4 0  9998
2 20323  97.1024  27.0374 0070739 323.4380  36.1999 14.48357475605227
ARIANE 40 R/B           
1 20443U 90005H   20254.74434860 -.00000008  00000-0  11963-4 0  9999
2 20443  98.5685 316.3973 0011607  89.9904 270.2613 14.38098210604379
DELTA 2 R/B(1)          
1 20453U 90008B   20255.04106828  .00000357  00000-0  22524-4 0  9998
2 20453  35.6255 111.5785 0281234 299.3386  57.9508 14.85662034623936
COSMOS 2058             
1 20465U 90010A   20254.88129221  .00000167  00000-0  11823-4 0  9996
2 20465  82.4916 191.1412 0013777 274.1805  85.7843 14.98041341662228
SL-14 R/B               
1 20466U 90010B   20254.85471234  .00000048  00000-0  30807-5 0  9990
2 20466  82.5062 346.8529 0021823  59.3389 300.9972 14.81391982631379
SL-14 R/B               
1 20511U 90018B   20255.18707443  .00000050  00000-0  35914-5 0  9997
2 20511  82.5213 293.3032 0017120 191.7886 228.8406 14.80047532646892
HST                     
1 20580U 90037B   20254.92506547  .00000381  00000-0  12173-4 0  9995
2 20580  28.4694 114.3318 0002534 292.5101 187.5595 15.09429178468896
SL-16 R/B               
1 20625U 90046B   20254.92257748  .00000232  00000-0  14530-3 0  9994
2 20625  70.9998 188.8011 0012323 115.8111 244.4284 14.14659378564703
COSMOS 2084             
1 20663U 90055A   20254.69984618 -.00000025  00000-0  15546-4 0  9993
2 20663  62.7934 243.5596 0031341 300.1909  59.6081 14.92110366636072
SL-6 R/B(2)             
1 20666U 90055D   20255.07308156 -.00000068  00000-0  11809-4 0  9991
2 20666  62.7862 158.5368 0057516 358.2445   1.8437 14.92360876637548
SL-8 R/B                
1 20775U 90078B   20254.82979384  .00000952  00000-0  45878-4 0  9990
2 20775  82.9292 156.2322 0571088 290.2416  63.8266 14.34663941517981
SL-8 R/B                
1 21088U 91006B   20255.04639822  .00000096  00000-0  81961-4 0  9997
2 21088  82.9422 221.5714 0021074 250.6156 177.1621 13.77145075488262
OKEAN-3                 
1 21397U 91039A   20254.70161007  .00000135  00000-0  10541-4 0  9993
2 21397  82.5191  95.6685 0016421 242.2955 117.6599 14.92954797564989
COSMOS 2151             
1 21422U 91042A   20254.95913215  .00000158  00000-0  13051-4 0  9993
2 21422  82.5022 201.5336 0012982 312.4002  47.6118 14.92153889584718
SL-14 R/B               
1 21423U 91042B   20254.66204808  .00000051  00000-0  37341-5 0  9994
2 21423  82.4926 297.2686 0017115 345.1197  14.9510 14.79798002556261
ERS-1                   
1 21574U 91050A   20255.08609142  .00000035  00000-0  26179-4 0  9995
2 21574  98.6048 208.5038 0033782  34.0578 326.2767 14.37756583527402
ARIANE 40 R/B           
1 21610U 91050F   20254.82884584 -.00000016  00000-0  85728-5 0  9998
2 21610  98.4588 323.1873 0003411  25.0431  85.6826 14.40912790529991
INTERCOSMOS 25          
1 21819U 91086A   20254.92851788 -.00000035  00000-0 -15155-4 0  9997
2 21819  82.5826  75.1374 1517184  89.9459 287.4780 12.05129097254588
SL-8 R/B                
1 21876U 92008B   20254.70445737  .00000049  00000-0  35609-4 0  9993
2 21876  82.9280 319.0624 0034118 338.0173 138.1140 13.75657899433594
SL-8 R/B                
1 21938U 92020B   20254.94789063 -.00000019  00000-0 -36341-4 0  9998
2 21938  82.9321 203.0882 0030169 132.9030 290.1954 13.75277098425426
COSMOS 2219             
1 22219U 92076A   20254.69540991 -.00000251  00000-0 -10815-3 0  9994
2 22219  71.0566 249.6425 0017268  16.9204 343.2490 14.13641108434860
SL-16 R/B               
1 22220U 92076B   20254.88657692  .00000214  00000-0  13139-3 0  9993
2 22220  70.9989  91.7423 0015073 272.0362 181.5597 14.16460033437778
COSMOS 2221             
1 22236U 92080A   20254.89750947  .00000131  00000-0  11588-4 0  9998
2 22236  82.5099  22.9095 0017630  42.3135 317.9438 14.87945437503029
SL-16 R/B               
1 22285U 92093B   20254.48252664 -.00000026  00000-0  11192-4 0  9999
2 22285  71.0174 254.1326 0002837 153.7022 206.4246 14.15044907429367
COSMOS 2228             
1 22286U 92094A   20254.76999188  .00000135  00000-0  11849-4 0  9990
2 22286  82.5228 339.3777 0021858 154.1750 206.0564 14.88163076477134
SL-16 R/B               
1 22566U 93016B   20254.86725981 -.00000235  00000-0 -96995-4 0  9993
2 22566  71.0058 106.4610 0008882 146.2597 213.9093 14.14962862418410
COSMOS 2242             
1 22626U 93024A   20254.89047875  .00000130  00000-0  11341-4 0  9995
2 22626  82.5248   7.4179 0019653 153.5066 206.7161 14.88019225481867
SL-16 R/B               
1 22803U 93059B   20255.11244697  .00000222  00000-0  13444-3 0  9994
2 22803  70.9882 278.7489 0016415  18.3455 341.8257 14.16825068395692
ARIANE 40 R/B           
1 22830U 93061H   20254.71956327 -.00000047  00000-0 -79678-6 0  9993
2 22830  98.7573 304.6730 0011974  74.6271 285.6234 14.31455549407022
COSMOS 2278             
1 23087U 94023A   20254.85829347 -.00000313  00000-0 -14017-3 0  9992
2 23087  71.0539  49.1425 0010355 223.6737 136.3567 14.13809786361262
SL-16 R/B               
1 23088U 94023B   20254.60493868 -.00000098  00000-0 -26212-4 0  9992
2 23088  71.0004 322.3958 0001364 134.2638 225.8596 14.14684543362354
SL-16 R/B               
1 23343U 94074B   20254.75456657 -.00000014  00000-0  53785-5 0  9996
2 23343  97.9909 306.9638 0005794 228.3411 243.9384 14.76835377391008
SL-16 R/B               
1 23405U 94077B   20255.15155296  .00000001  00000-0  25238-4 0  9994
2 23405  70.9814 250.2720 0004510 302.0806  57.9879 14.15226733332739
ERS-2                   
1 23560U 95021A   20255.08812838  .00000495  00000-0  24666-4 0  9991
2 23560  98.5512  60.3556 0002428 225.1707 134.9329 15.23282638355186
ARIANE 40+ R/B          
1 23561U 95021B   20254.77318904  .00000003  00000-0  16269-4 0  9997
2 23561  98.7173 295.2433 0006979  11.1111 112.9993 14.37981508330836
SL-16 R/B               
1 23705U 95058B   20254.83435566 -.00000135  00000-0 -45052-4 0  9998
2 23705  71.0209  69.8117 0014552 292.9039  67.0547 14.15135797284052
SL-16 R/B               
1 24298U 96051B   20254.84969831 -.00000085  00000-0 -19768-4 0  9997
2 24298  70.8415  90.5104 0018691 229.5014 130.4478 14.12498333238412
ORBVIEW 2 (SEASTAR)     
1 24883U 97037A   20254.90125604  .00000019  00000-0  22748-4 0  9998
2 24883  98.6184   7.7908 0002062 184.1101 176.0066 14.33568673220950
SL-16 R/B               
1 25400U 98043G   20254.78764235 -.00000025  00000-0  79371-5 0  9990
2 25400  98.6097 189.1544 0011079  86.6529 273.5918 14.25460214153179
SL-16 R/B               
1 25407U 98045B   20254.96976913  .00000185  00000-0  11844-3 0  9992
2 25407  71.0103  77.8854 0008599 216.8472 143.2061 14.15830092143459
ISS (ZARYA)             
1 25544U 98067A   20255.21685807 -.00281532  00000-0 -53140-2 0  9999
2 25544  51.6443 282.7350 0001356 131.8630 346.0901 15.48864637245353
SL-8 R/B                
1 25723U 99022C   20254.38003009  .00015811  00000-0  98810-4 0  9993
2 25723  48.4098 256.7870 0005301  36.3855 323.7459 15.76933768191052
CZ-4B R/B               
1 25732U 99025C   20254.73996503 -.00000043  00000-0  14932-5 0  9991
2 25732  98.9394 284.0419 0036762 328.8954 142.4108 14.17680615103906
OKEAN-O                 
1 25860U 99039A   20255.02515341  .00000015  00000-0  97158-5 0  9997
2 25860  98.2115 275.5000 0001035  67.3680 292.7638 14.76676709138234
SL-16 R/B               
1 25861U 99039B   20255.06924847 -.00000001  00000-0  73674-5 0  9990
2 25861  98.2104 258.9218 0014451 240.6860 155.2285 14.78589858140415
DELTA 2 R/B             
1 25876U 99041E   20254.75877516 -.00000045  00000-0  31709-4 0  9994
2 25876  51.7687 333.5750 0530917 232.8325 122.2998 14.04454273 80612
